QIANFAN-73              
1 63159U 25046A   25210.84441854  .00000139  00000+0  19606-3 0  9996
2 63159  88.9857 334.0240 0016199 151.3412 208.8633 13.50957733 29060
QIANFAN-74              
1 63160U 25046B   25210.82802544  .00000161  00000+0  23046-3 0  9991
2 63160  88.9857 333.9142 0001965 101.3268 258.8104 13.50962198 29126
QIANFAN-75              
1 63161U 25046C   25210.88974587  .00000159  00000+0  22767-3 0  9991
2 63161  88.9858 334.1395 0017300 154.4593 205.7416 13.50958652 29005
QIANFAN-76              
1 63162U 25046D   25210.58918671  .00000174  00000+0  25093-3 0  9993
2 63162  88.9858 334.1515 0014838 154.9452 205.2423 13.50954490 28976
QIANFAN-77              
1 63163U 25046E   25210.57499410  .00000344  00000+0  24138-3 0  9996
2 63163  88.9855 333.2760 0016383 140.4248 219.8128 13.96003038 29456
QIANFAN-78              
1 63164U 25046F   25210.85267604  .00000172  00000+0  24831-3 0  9995
2 63164  88.9857 333.9900 0016164 156.9620 203.2259 13.50957980 29080
QIANFAN-79              
1 63165U 25046G   25210.58513919  .00000159  00000+0  22793-3 0  9999
2 63165  88.9861 334.1196 0015867 155.9823 204.2071 13.50959968 28999
QIANFAN-80              
1 63166U 25046H   25210.89797511  .00000151  00000+0  21583-3 0  9994
2 63166  88.9858 333.7983 0014773 158.7450 201.4317 13.50960373 29194
